{
  "type": "FeatureCollection",
  "features": [
    {
      "type": "Feature",
      "properties": {
        "norad_id": 43719,
        "name": "HYSIS",
        "group": "resource",
        "lat": -35.86462481271021,
        "lon": -141.2310211797912,
        "alt_km": 640.9807190668625,
        "timestamp": "2025-12-07T14:37:04.867115+00:00",
        "meta_object_name": "HYSIS",
        "meta_object_id": "2018-096A",
        "meta_epoch": "2025-12-06T21:24:08.131392",
        "meta_mean_motion": 14.78620746,
        "meta_eccentricity": 0.00015555,
        "meta_inclination": 98.0103,
        "meta_ra_of_asc_node": 43.8982,
        "meta_arg_of_pericenter": 63.768,
        "meta_mean_anomaly": 296.3691,
        "meta_ephemeris_type": 0,
        "meta_classification_type": "U",
        "meta_norad_cat_id": 43719,
        "meta_element_set_no": 999,
        "meta_rev_at_epoch": 37900,
        "meta_bstar": 0.00034144867,
        "meta_mean_motion_dot": 2.448e-05,
        "meta_mean_motion_ddot": 0,
        "tle_line1": "1 43719U 18096A   25340.89176078  .00002448  00000+0  34145-3 0  9995",
        "tle_line2": "2 43719  98.0103  43.8982 0001555  63.7680 296.3691 14.78620746379007"
      },
      "geometry": {
        "type": "Point",
        "coordinates": [
          -141.2310211797912,
          -35.86462481271021
        ]
      }
    },
    {
      "type": "Feature",
      "properties": {
        "norad_id": 43783,
        "name": "KAZSTSAT",
        "group": "resource",
        "lat": 69.37046823016153,
        "lon": -3.3405116992412527,
        "alt_km": 561.4790304363423,
        "timestamp": "2025-12-07T14:37:04.867130+00:00",
        "meta_object_name": "KAZSTSAT",
        "meta_object_id": "2018-099AB",
        "meta_epoch": "2025-12-06T22:17:12.640128",
        "meta_mean_motion": 14.99324571,
        "meta_eccentricity": 0.00062615,
        "meta_inclination": 97.4553,
        "meta_ra_of_asc_node": 16.3634,
        "meta_arg_of_pericenter": 353.3011,
        "meta_mean_anomaly": 6.8128,
        "meta_ephemeris_type": 0,
        "meta_classification_type": "U",
        "meta_norad_cat_id": 43783,
        "meta_element_set_no": 999,
        "meta_rev_at_epoch": 38249,
        "meta_bstar": 0.00026087146,
        "meta_mean_motion_dot": 3.133e-05,
        "meta_mean_motion_ddot": 0,
        "tle_line1": "1 43783U 18099AB  25340.92861852  .00003133  00000+0  26087-3 0  9992",
        "tle_line2": "2 43783  97.4553  16.3634 0006261 353.3011   6.8128 14.99324571382490"
      },
      "geometry": {
        "type": "Point",
        "coordinates": [
          -3.3405116992412527,
          69.37046823016153
        ]
      }
    },
    {
      "type": "Feature",
      "properties": {
        "norad_id": 43831,
        "name": "SAUDISAT 5A",
        "group": "resource",
        "lat": -1.2343954589047303,
        "lon": 42.05866491098187,
        "alt_km": 492.7254205513791,
        "timestamp": "2025-12-07T14:37:04.867145+00:00",
        "meta_object_name": "SAUDISAT 5A",
        "meta_object_id": "2018-102A",
        "meta_epoch": "2025-12-06T22:52:52.926240",
        "meta_mean_motion": 15.25549855,
        "meta_eccentricity": 0.00118276,
        "meta_inclination": 97.3358,
        "meta_ra_of_asc_node": 41.2566,
        "meta_arg_of_pericenter": 93.8641,
        "meta_mean_anomaly": 266.395,
        "meta_ephemeris_type": 0,
        "meta_classification_type": "U",
        "meta_norad_cat_id": 43831,
        "meta_element_set_no": 999,
        "meta_rev_at_epoch": 38634,
        "meta_bstar": 0.00038070625,
        "meta_mean_motion_dot": 9.609e-05,
        "meta_mean_motion_ddot": 0,
        "tle_line1": "1 43831U 18102A   25340.95339035  .00009609  00000+0  38071-3 0  9997",
        "tle_line2": "2 43831  97.3358  41.2566 0011827  93.8641 266.3950 15.25549855386344"
      },
      "geometry": {
        "type": "Point",
        "coordinates": [
          42.05866491098187,
          -1.2343954589047303
        ]
      }
    },
    {
      "type": "Feature",
      "properties": {
        "norad_id": 43833,
        "name": "SAUDISAT 5B",
        "group": "resource",
        "lat": 44.076629845139855,
        "lon": 37.45376323816838,
        "alt_km": 478.778125368106,
        "timestamp": "2025-12-07T14:37:04.867156+00:00",
        "meta_object_name": "SAUDISAT 5B",
        "meta_object_id": "2018-102C",
        "meta_epoch": "2025-12-06T22:41:06.760896",
        "meta_mean_motion": 15.25904918,
        "meta_eccentricity": 0.00125201,
        "meta_inclination": 97.3453,
        "meta_ra_of_asc_node": 43.9768,
        "meta_arg_of_pericenter": 96.3787,
        "meta_mean_anomaly": 263.8878,
        "meta_ephemeris_type": 0,
        "meta_classification_type": "U",
        "meta_norad_cat_id": 43833,
        "meta_element_set_no": 999,
        "meta_rev_at_epoch": 38645,
        "meta_bstar": 0.00037599249,
        "meta_mean_motion_dot": 9.593e-05,
        "meta_mean_motion_ddot": 0,
        "tle_line1": "1 43833U 18102C   25340.94521714  .00009593  00000+0  37599-3 0  9991",
        "tle_line2": "2 43833  97.3453  43.9768 0012520  96.3787 263.8878 15.25904918386453"
      },
      "geometry": {
        "type": "Point",
        "coordinates": [
          37.45376323816838,
          44.076629845139855
        ]
      }
    },
    {
      "type": "Feature",
      "properties": {
        "norad_id": 44622,
        "name": "GAOFEN-10R",
        "group": "resource",
        "lat": 62.9379326310681,
        "lon": -86.93990542447416,
        "alt_km": 608.8288512761037,
        "timestamp": "2025-12-07T14:37:04.867166+00:00",
        "meta_object_name": "GAOFEN-10R",
        "meta_object_id": "2019-066A",
        "meta_epoch": "2025-12-06T22:08:04.801056",
        "meta_mean_motion": 14.82760913,
        "meta_eccentricity": 0.00081576,
        "meta_inclination": 98.0273,
        "meta_ra_of_asc_node": 288.4059,
        "meta_arg_of_pericenter": 57.9146,
        "meta_mean_anomaly": 302.2858,
        "meta_ephemeris_type": 0,
        "meta_classification_type": "U",
        "meta_norad_cat_id": 44622,
        "meta_element_set_no": 999,
        "meta_rev_at_epoch": 33388,
        "meta_bstar": 0.00038606337,
        "meta_mean_motion_dot": 3.067e-05,
        "meta_mean_motion_ddot": 0,
        "tle_line1": "1 44622U 19066A   25340.92227779  .00003067  00000+0  38606-3 0  9990",
        "tle_line2": "2 44622  98.0273 288.4059 0008157  57.9146 302.2858 14.82760913333882"
      },
      "geometry": {
        "type": "Point",
        "coordinates": [
          -86.93990542447416,
          62.9379326310681
        ]
      }
    },
    {
      "type": "Feature",
      "properties": {
        "norad_id": 44804,
        "name": "CARTOSAT-3",
        "group": "resource",
        "lat": -81.4028271089266,
        "lon": 101.32217335096277,
        "alt_km": 524.8015414229858,
        "timestamp": "2025-12-07T14:37:04.867176+00:00",
        "meta_object_name": "CARTOSAT-3",
        "meta_object_id": "2019-081A",
        "meta_epoch": "2025-12-06T23:11:19.970304",
        "meta_mean_motion": 15.19297538,
        "meta_eccentricity": 0.00139526,
        "meta_inclination": 97.459,
        "meta_ra_of_asc_node": 40.6224,
        "meta_arg_of_pericenter": 105.1523,
        "meta_mean_anomaly": 255.1256,
        "meta_ephemeris_type": 0,
        "meta_classification_type": "U",
        "meta_norad_cat_id": 44804,
        "meta_element_set_no": 999,
        "meta_rev_at_epoch": 33428,
        "meta_bstar": 0.00034605424,
        "meta_mean_motion_dot": 7.255e-05,
        "meta_mean_motion_ddot": 0,
        "tle_line1": "1 44804U 19081A   25340.96620336  .00007255  00000+0  34605-3 0  9997",
        "tle_line2": "2 44804  97.4590  40.6224 0013952 105.1523 255.1256 15.19297538334287"
      },
      "geometry": {
        "type": "Point",
        "coordinates": [
          101.32217335096277,
          -81.4028271089266
        ]
      }
    },
    {
      "type": "Feature",
      "properties": {
        "norad_id": 44819,
        "name": "GAOFEN-12 01",
        "group": "resource",
        "lat": 10.231700944232097,
        "lon": -13.395303812442611,
        "alt_km": 629.0093354959245,
        "timestamp": "2025-12-07T14:37:04.867186+00:00",
        "meta_object_name": "GAOFEN-12 01",
        "meta_object_id": "2019-082A",
        "meta_epoch": "2025-12-06T22:21:08.906976",
        "meta_mean_motion": 14.80646937,
        "meta_eccentricity": 0.00011877,
        "meta_inclination": 97.8125,
        "meta_ra_of_asc_node": 347.3648,
        "meta_arg_of_pericenter": 273.3937,
        "meta_mean_anomaly": 86.7139,
        "meta_ephemeris_type": 0,
        "meta_classification_type": "U",
        "meta_norad_cat_id": 44819,
        "meta_element_set_no": 999,
        "meta_rev_at_epoch": 32564,
        "meta_bstar": 0.00012996276,
        "meta_mean_motion_dot": 9.47e-06,
        "meta_mean_motion_ddot": 0,
        "tle_line1": "1 44819U 19082A   25340.93135309  .00000947  00000+0  12996-3 0  9992",
        "tle_line2": "2 44819  97.8125 347.3648 0001187 273.3937  86.7139 14.80646937325648"
      },
      "geometry": {
        "type": "Point",
        "coordinates": [
          -13.395303812442611,
          10.231700944232097
        ]
      }
    }
  ]
}